start=new Date('2023-05-04T00:00:00.000Z').valueOf();
sats=[{"INCLINATION":"53.0533","NORAD_CAT_ID":"44747","ECCENTRICITY":"0.00011630","MEAN_MOTION_DDOT":"0.0000000000000","FILE":"3900138","GP_ID":"231172837","PERIOD":"95.590","RCS_SIZE":"LARGE","SITE":"AFETR","CLASSIFICATION_TYPE":"U","DECAY_DATE":null,"EPOCH":"2023-05-03T12:59:34.854432","PERIAPSIS":"546.305","TLE_LINE2":"2 44747  53.0533 220.5120 0001163  81.0377 279.0743 15.06433722191440","SEMIMAJOR_AXIS":"6925.245","LAUNCH_DATE":"2019-11-11","REF_FRAME":"TEME","ARG_OF_PERICENTER":"81.0377","TLE_LINE1":"1 44747U 19074AL  23123.54137563  .00013061  00000-0  89326-3 0  9994","EPHEMERIS_TYPE":"0","MEAN_ANOMALY":"279.0743","COUNTRY_CODE":"US","TIME_SYSTEM":"UTC","OBJECT_NAME":"STARLINK-1042","OBJECT_ID":"2019-074AL","MEAN_MOTION":"15.06433722","CENTER_NAME":"EARTH","BSTAR":"0.00089326000000","MEAN_MOTION_DOT":"0.00013061","MEAN_ELEMENT_THEORY":"SGP4","RA_OF_ASC_NODE":"220.5120","REV_AT_EPOCH":"19144","OBJECT_TYPE":"PAYLOAD","APOAPSIS":"547.916","ELEMENT_SET_NO":"999"},{"TIME_SYSTEM":"UTC","COUNTRY_CODE":"US","MEAN_ANOMALY":"260.4636","EPHEMERIS_TYPE":"0","ARG_OF_PERICENTER":"99.6473","TLE_LINE1":"1 44748U 19074AM  23123.50450949  .00016858  00000-0  11471-2 0  9999","REF_FRAME":"TEME","LAUNCH_DATE":"2019-11-11","SEMIMAJOR_AXIS":"6925.267","TLE_LINE2":"2 44748  53.0535 220.6768 0001063  99.6473 260.4636 15.06426608191432","PERIAPSIS":"546.396","SITE":"AFETR","RCS_SIZE":"LARGE","DECAY_DATE":null,"CLASSIFICATION_TYPE":"U","EPOCH":"2023-05-03T12:06:29.619936","MEAN_MOTION_DDOT":"0.0000000000000","FILE":"3899668","GP_ID":"231136890","PERIOD":"95.590","ECCENTRICITY":"0.00010630","INCLINATION":"53.0535","NORAD_CAT_ID":"44748","ELEMENT_SET_NO":"999","APOAPSIS":"547.868","OBJECT_TYPE":"PAYLOAD","MEAN_MOTION_DOT":"0.00016858","MEAN_ELEMENT_THEORY":"SGP4","RA_OF_ASC_NODE":"220.6768","REV_AT_EPOCH":"19143","BSTAR":"0.00114710000000","MEAN_MOTION":"15.06426608","CENTER_NAME":"EARTH","OBJECT_ID":"2019-074AM","OBJECT_NAME":"STARLINK-1043"},{"ELEMENT_SET_NO":"999","APOAPSIS":"548.022","OBJECT_TYPE":"PAYLOAD","MEAN_MOTION_DOT":"0.00009220","RA_OF_ASC_NODE":"220.0129","REV_AT_EPOCH":"19128","MEAN_ELEMENT_THEORY":"SGP4","MEAN_MOTION":"15.06428715","CENTER_NAME":"EARTH","BSTAR":"0.00063654000000","OBJECT_NAME":"STARLINK-1046","OBJECT_ID":"2019-074AQ","TIME_SYSTEM":"UTC","EPHEMERIS_TYPE":"0","MEAN_ANOMALY":"273.4740","COUNTRY_CODE":"US","REF_FRAME":"TEME","ARG_OF_PERICENTER":"86.6397","TLE_LINE1":"1 44751U 19074AQ  23123.65194922  .00009220  00000-0  63654-3 0  9991","SEMIMAJOR_AXIS":"6925.261","LAUNCH_DATE":"2019-11-11","TLE_LINE2":"2 44751  53.0527 220.0129 0001295  86.6397 273.4740 15.06428715191284","PERIAPSIS":"546.229","MEAN_MOTION_DDOT":"0.0000000000000","FILE":"3900281","GP_ID":"231192831","PERIOD":"95.590","SITE":"AFETR","RCS_SIZE":"LARGE","DECAY_DATE":null,"CLASSIFICATION_TYPE":"U","EPOCH":"2023-05-03T15:38:48.412608","INCLINATION":"53.0527","NORAD_CAT_ID":"44751","ECCENTRICITY":"0.00012950"},{"APOAPSIS":"548.030","ELEMENT_SET_NO":"999","MEAN_MOTION_DOT":"0.00006023","REV_AT_EPOCH":"19155","RA_OF_ASC_NODE":"200.2241","MEAN_ELEMENT_THEORY":"SGP4","OBJECT_TYPE":"PAYLOAD","MEAN_MOTION":"15.06423642","CENTER_NAME":"EARTH","BSTAR":"0.00042260000000","OBJECT_NAME":"STARLINK-1047","OBJECT_ID":"2019-074AR","MEAN_ANOMALY":"264.3312","EPHEMERIS_TYPE":"0","COUNTRY_CODE":"US","TIME_SYSTEM":"UTC","SEMIMAJOR_AXIS":"6925.276","LAUNCH_DATE":"2019-11-11","REF_FRAME":"TEME","ARG_OF_PERICENTER":"95.7823","TLE_LINE1":"1 44752U 19074AR  23123.60587443  .00006023  00000-0  42260-3 0  9999","PERIAPSIS":"546.252","TLE_LINE2":"2 44752  53.0537 200.2241 0001284  95.7823 264.3312 15.06423642191552","INCLINATION":"53.0537","NORAD_CAT_ID":"44752","ECCENTRICITY":"0.00012840","MEAN_MOTION_DDOT":"0.0000000000000","FILE":"3900281","GP_ID":"231194081","PERIOD":"95.591","RCS_SIZE":"LARGE","SITE":"AFETR","DECAY_DATE":null,"EPOCH":"2023-05-03T14:32:27.550752","CLASSIFICATION_TYPE":"U"},{"TIME_SYSTEM":"UTC","EPHEMERIS_TYPE":"0","MEAN_ANOMALY":"254.0095","COUNTRY_CODE":"US","REF_FRAME":"TEME","TLE_LINE1":"1 44753U 19074AS  23123.54505257  .00005135  00000-0  36324-3 0  9993","ARG_OF_PERICENTER":"106.1044","SEMIMAJOR_AXIS":"6925.317","LAUNCH_DATE":"2019-11-11","TLE_LINE2":"2 44753  53.0528 180.4917 0001365 106.1044 254.0095 15.06410396191998","PERIAPSIS":"546.236","GP_ID":"231136905","FILE":"3899669","PERIOD":"95.591","MEAN_MOTION_DDOT":"0.0000000000000","CLASSIFICATION_TYPE":"U","DECAY_DATE":null,"EPOCH":"2023-05-03T13:04:52.542048","SITE":"AFETR","RCS_SIZE":"LARGE","NORAD_CAT_ID":"44753","INCLINATION":"53.0528","ECCENTRICITY":"0.00013650","ELEMENT_SET_NO":"999","APOAPSIS":"548.127","OBJECT_TYPE":"PAYLOAD","MEAN_ELEMENT_THEORY":"SGP4","REV_AT_EPOCH":"19199","RA_OF_ASC_NODE":"180.4917","MEAN_MOTION_DOT":"0.00005135","CENTER_NAME":"EARTH","MEAN_MOTION":"15.06410396","BSTAR":"0.00036324000000","OBJECT_NAME":"STARLINK-1048","OBJECT_ID":"2019-074AS"},{"ELEMENT_SET_NO":"999","APOAPSIS":"337.343","OBJECT_TYPE":"PAYLOAD","MEAN_MOTION_DOT":"0.00107530","RA_OF_ASC_NODE":"170.9926","MEAN_ELEMENT_THEORY":"SGP4","REV_AT_EPOCH":"19195","MEAN_MOTION":"15.77956675","CENTER_NAME":"EARTH","BSTAR":"0.00061799000000","OBJECT_NAME":"STARLINK-1049","OBJECT_ID":"2019-074AT","TIME_SYSTEM":"UTC","EPHEMERIS_TYPE":"0","MEAN_ANOMALY":"286.5763","COUNTRY_CODE":"US","REF_FRAME":"TEME","ARG_OF_PERICENTER":"73.5439","TLE_LINE1":"1 44754U 19074AT  23123.50793087  .00107530  00000-0  61799-3 0  9996","SEMIMAJOR_AXIS":"6714.368","LAUNCH_DATE":"2019-11-11","TLE_LINE2":"2 44754  53.0521 170.9926 0001654  73.5439 286.5763 15.77956675191953","PERIAPSIS":"335.122","MEAN_MOTION_DDOT":"0.0000000000000","PERIOD":"91.257","GP_ID":"231161303","FILE":"3899966","RCS_SIZE":"LARGE","SITE":"AFETR","CLASSIFICATION_TYPE":"U","DECAY_DATE":null,"EPOCH":"2023-05-03T12:11:25.227168","INCLINATION":"53.0521","NORAD_CAT_ID":"44754","ECCENTRICITY":"0.00016540"},{"ELEMENT_SET_NO":"999","APOAPSIS":"548.005","OBJECT_TYPE":"PAYLOAD","MEAN_MOTION_DOT":"0.00010787","REV_AT_EPOCH":"19156","MEAN_ELEMENT_THEORY":"SGP4","RA_OF_ASC_NODE":"199.8747","BSTAR":"0.00074138000000","MEAN_MOTION":"15.06428665","CENTER_NAME":"EARTH","OBJECT_ID":"2019-074AW","OBJECT_NAME":"STARLINK-1052","TIME_SYSTEM":"UTC","COUNTRY_CODE":"US","MEAN_ANOMALY":"282.4265","EPHEMERIS_TYPE":"0","ARG_OF_PERICENTER":"77.6866","TLE_LINE1":"1 44757U 19074AW  23123.68327855  .00010787  00000-0  74138-3 0  9992","REF_FRAME":"TEME","LAUNCH_DATE":"2019-11-11","SEMIMAJOR_AXIS":"6925.261","TLE_LINE2":"2 44757  53.0536 199.8747 0001269  77.6866 282.4265 15.06428665191568","PERIAPSIS":"546.247","SITE":"AFETR","RCS_SIZE":"LARGE","CLASSIFICATION_TYPE":"U","DECAY_DATE":null,"EPOCH":"2023-05-03T16:23:55.266720","MEAN_MOTION_DDOT":"0.0000000000000","FILE":"3900281","GP_ID":"231193331","PERIOD":"95.590","ECCENTRICITY":"0.00012690","INCLINATION":"53.0536","NORAD_CAT_ID":"44757"},{"SEMIMAJOR_AXIS":"6925.219","LAUNCH_DATE":"2019-11-11","REF_FRAME":"TEME","TLE_LINE1":"1 44758U 19074AX  23123.63352971  .00016958  00000-0  11533-2 0  9990","ARG_OF_PERICENTER":"82.8613","MEAN_ANOMALY":"277.2472","EPHEMERIS_TYPE":"0","COUNTRY_CODE":"US","TIME_SYSTEM":"UTC","NORAD_CAT_ID":"44758","INCLINATION":"53.0540","ECCENTRICITY":"0.00008440","GP_ID":"231193582","FILE":"3900281","PERIOD":"95.589","MEAN_MOTION_DDOT":"0.0000000000000","CLASSIFICATION_TYPE":"U","DECAY_DATE":null,"EPOCH":"2023-05-03T15:12:16.966944","SITE":"AFETR","RCS_SIZE":"LARGE","PERIAPSIS":"546.500","TLE_LINE2":"2 44758  53.0540 220.1881 0000844  82.8613 277.2472 15.06442200191289","RA_OF_ASC_NODE":"220.1881","MEAN_ELEMENT_THEORY":"SGP4","REV_AT_EPOCH":"19128","MEAN_MOTION_DOT":"0.00016958","OBJECT_TYPE":"PAYLOAD","APOAPSIS":"547.669","ELEMENT_SET_NO":"999","OBJECT_NAME":"STARLINK-1053","OBJECT_ID":"2019-074AX","CENTER_NAME":"EARTH","MEAN_MOTION":"15.06442200","BSTAR":"0.00115330000000"},{"ELEMENT_SET_NO":"999","APOAPSIS":"548.314","OBJECT_TYPE":"PAYLOAD","REV_AT_EPOCH":"18892","RA_OF_ASC_NODE":"220.1791","MEAN_ELEMENT_THEORY":"SGP4","MEAN_MOTION_DOT":"0.00022438","BSTAR":"0.00152090000000","CENTER_NAME":"EARTH","MEAN_MOTION":"15.06388782","OBJECT_ID":"2019-074AY","OBJECT_NAME":"STARLINK-1054","TIME_SYSTEM":"UTC","COUNTRY_CODE":"US","MEAN_ANOMALY":"239.2435","EPHEMERIS_TYPE":"0","TLE_LINE1":"1 44759U 19074AY  23123.61510734  .00022438  00000-0  15209-2 0  9996","ARG_OF_PERICENTER":"120.8706","REF_FRAME":"TEME","LAUNCH_DATE":"2019-11-11","SEMIMAJOR_AXIS":"6925.383","TLE_LINE2":"2 44759  53.0534 220.1791 0001540 120.8706 239.2435 15.06388782188921","PERIAPSIS":"546.181","DECAY_DATE":null,"CLASSIFICATION_TYPE":"U","EPOCH":"2023-05-03T14:45:45.274176","RCS_SIZE":"LARGE","SITE":"AFETR","FILE":"3900281","GP_ID":"231194331","PERIOD":"95.593","MEAN_MOTION_DDOT":"0.0000000000000","ECCENTRICITY":"0.00015400","NORAD_CAT_ID":"44759","INCLINATION":"53.0534"},{"TIME_SYSTEM":"UTC","COUNTRY_CODE":"US","EPHEMERIS_TYPE":"0","MEAN_ANOMALY":"3.1413","ARG_OF_PERICENTER":"356.9564","TLE_LINE1":"1 44760U 19074AZ  23123.54970748  .00029955  00000-0  16064-2 0  9996","REF_FRAME":"TEME","LAUNCH_DATE":"2019-11-11","SEMIMAJOR_AXIS":"6899.882","TLE_LINE2":"2 44760  53.0542 217.1560 0002404 356.9564   3.1413 15.14747462191321","PERIAPSIS":"520.089","SITE":"AFETR","RCS_SIZE":"LARGE","EPOCH":"2023-05-03T13:11:34.726272","DECAY_DATE":null,"CLASSIFICATION_TYPE":"U","MEAN_MOTION_DDOT":"0.0000000000000","GP_ID":"231161803","PERIOD":"95.065","FILE":"3899966","ECCENTRICITY":"0.00024040","INCLINATION":"53.0542","NORAD_CAT_ID":"44760","ELEMENT_SET_NO":"999","APOAPSIS":"523.406","OBJECT_TYPE":"PAYLOAD","MEAN_MOTION_DOT":"0.00029955","RA_OF_ASC_NODE":"217.1560","REV_AT_EPOCH":"19132","MEAN_ELEMENT_THEORY":"SGP4","BSTAR":"0.00160640000000","MEAN_MOTION":"15.14747462","CENTER_NAME":"EARTH","OBJECT_ID":"2019-074AZ","OBJECT_NAME":"STARLINK-1055"}];
